[{"OBJECT_NAME":"OBJECT D","OBJECT_ID":"2024-203D","EPOCH":"2026-03-09T23:01:14.628576","MEAN_MOTION":15.25394324,"ECCENTRICITY":0.00105281,"INCLINATION":97.4343,"RA_OF_ASC_NODE":139.6527,"ARG_OF_PERICENTER":340.1906,"MEAN_ANOMALY":19.8921,"EPHEMERIS_TYPE":0,"CLASSIFICATION_TYPE":"U","NORAD_CAT_ID":61872,"ELEMENT_SET_NO":999,"REV_AT_EPOCH":7378,"BSTAR":0.00059366578,"MEAN_MOTION_DOT":0.00014956,"MEAN_MOTION_DDOT":0},{"OBJECT_NAME":"STARLINK-35836","OBJECT_ID":"2025-268Q","EPOCH":"2026-03-09T03:44:48.855264","MEAN_MOTION":15.27581175,"ECCENTRICITY":0.00017917,"INCLINATION":43.0058,"RA_OF_ASC_NODE":350.4695,"ARG_OF_PERICENTER":280.5587,"MEAN_ANOMALY":79.5063,"EPHEMERIS_TYPE":0,"CLASSIFICATION_TYPE":"U","NORAD_CAT_ID":66571,"ELEMENT_SET_NO":999,"REV_AT_EPOCH":1787,"BSTAR":0.0014684218,"MEAN_MOTION_DOT":0.00040369,"MEAN_MOTION_DDOT":0}]
